ONEWEB-0029             
1 45445U 20020X   25154.58501879  .00000324  00000+0  87717-3 0  9997
2 45445  87.8838  96.5217 0001871  80.0026 280.1313 13.11424925253032
ONEWEB-0068             
1 45446U 20020Y   25154.87393763 -.00000439  00000+0 -12733-2 0  9995
2 45446  87.8838  96.4533 0001857  80.6575 279.4763 13.11419042253025
ONEWEB-0046             
1 45447U 20020Z   25154.56042006 -.00000498  00000+0 -14421-2 0  9994
2 45447  87.8836  96.5256 0001953  72.9935 287.1407 13.11418365252980
ONEWEB-0063             
1 45448U 20020AA  25154.58926795  .00000520  00000+0  14324-2 0  9999
2 45448  87.8836  96.5180 0002185  75.0313 285.1056 13.11418518253078
ONEWEB-0019             
1 45449U 20020AB  25154.56296523 -.00000415  00000+0 -12074-2 0  9992
2 45449  87.8839  96.5399 0002005  83.1191 277.0165 13.11418948252919
ONEWEB-0094             
1 45450U 20020AC  25154.51165177  .00000028  00000+0  40092-4 0  9990
2 45450  87.9068  81.2308 0001973  76.3133 283.8218 13.17648826256442
ONEWEB-0087             
1 45451U 20020AD  25154.59928831  .00000543  00000+0  14972-2 0  9991
2 45451  87.8830  96.4703 0001792  78.1140 282.0189 13.11417669252967
ONEWEB-0082             
1 45452U 20020AE  25154.36714454  .00000643  00000+0  17774-2 0  9995
2 45452  87.8834  96.5379 0001896  83.6278 276.5066 13.11417620253027
ONEWEB-0050             
1 45453U 20020AF  25154.41909773  .00002125  00000+0  21490-3 0  9990
2 45453  87.9970 298.8736 0000840 161.7104 198.4155 14.90581134283987
ONEWEB-0034             
1 45454U 20020AG  25154.54091948 -.00000041  00000+0 -15012-3 0  9991
2 45454  87.8834  96.5223 0002029  81.1897 278.9461 13.11414096252967
ONEWEB-0060             
1 45455U 20020AH  25154.58430234  .00000379  00000+0  10331-2 0  9991
2 45455  87.8839  96.5408 0002122  77.2939 282.8426 13.11419580252929
ONEWEB-0086             
1 45456U 20020AJ  25154.33831909 -.00000212  00000+0 -63471-3 0  9991
2 45456  87.8836  96.5617 0001649  77.9000 282.2313 13.11419642252959
ONEWEB-0088             
1 45457U 20020AK  25154.54515433 -.00000198  00000+0 -59583-3 0  9998
2 45457  87.8830  96.4706 0001976  78.2703 281.8647 13.11414051252919
ONEWEB-0102             
1 47258U 20100A   25154.31228865 -.00000286  00000+0 -83159-3 0  9997
2 47258  87.8889  66.0470 0002088  81.1580 278.9785 13.12441396215031
ONEWEB-0109             
1 47259U 20100B   25154.47288512 -.00000393  00000+0 -11269-2 0  9991
2 47259  87.8890  65.9839 0002054  82.3068 277.8294 13.12443906214882
ONEWEB-0110             
1 47260U 20100C   25154.49885533  .00000280  00000+0  74233-3 0  9995
2 47260  87.8884  65.9640 0001943  83.1905 276.9445 13.12445092215058
ONEWEB-0111             
1 47261U 20100D   25154.45341935  .00000087  00000+0  20522-3 0  9992
2 47261  87.8887  65.9868 0001977  79.0893 281.0458 13.12441533214888
ONEWEB-0114             
1 47262U 20100E   25154.78918511  .00000498  00000+0  13488-2 0  9997
2 47262  87.8888  65.9205 0002217  81.5399 278.5981 13.12441236214884
ONEWEB-0117             
1 47263U 20100F   25154.78106524 -.00000407  00000+0 -11665-2 0  9998
2 47263  87.8891  65.9125 0001916  78.8251 281.3093 13.12442034214895
ONEWEB-0118             
1 47264U 20100G   25154.27988120  .00000559  00000+0  15190-2 0  9996
2 47264  87.8888  66.0139 0002246  73.2022 286.9353 13.12444140215027
ONEWEB-0119             
1 47265U 20100H   25154.45991185 -.00000150  00000+0 -45320-3 0  9990
2 47265  87.8890  66.0170 0001939  80.0589 280.0758 13.12443030215029
ONEWEB-0120             
1 47266U 20100J   25154.78770801 -.00000324  00000+0 -93678-3 0  9999
2 47266  87.8892  65.9466 0002121  79.8231 280.3137 13.12444482215095
ONEWEB-0121             
1 47267U 20100K   25154.47125091 -.00000348  00000+0 -10029-2 0  9995
2 47267  87.8887  65.9817 0001875  81.9861 278.1481 13.12441891214961
ONEWEB-0122             
1 47268U 20100L   25154.46625347 -.00000437  00000+0 -12507-2 0  9996
2 47268  87.8884  65.9881 0001980  83.2372 276.8982 13.12442537214878
ONEWEB-0123             
1 47269U 20100M   25154.46153356 -.00000143  00000+0 -43323-3 0  9998
2 47269  87.8890  66.0152 0002016  76.6219 283.5134 13.12442965215012
ONEWEB-0124             
1 47270U 20100N   25154.45017926  .00000215  00000+0  56176-3 0  9999
2 47270  87.8888  66.0156 0001749  76.5842 283.5482 13.12442982214898
ONEWEB-0125             
1 47271U 20100P   25154.50369391  .00000359  00000+0  96169-3 0  9997
2 47271  87.8889  65.9676 0001896  70.7221 289.4113 13.12445980214960
ONEWEB-0126             
1 47272U 20100Q   25154.44863659  .00000309  00000+0  82279-3 0  9999
2 47272  87.8909  65.9868 0001962  78.1599 281.9750 13.12423819215020
ONEWEB-0127             
1 47273U 20100R   25154.49073527  .00000027  00000+0  39014-4 0  9999
2 47273  87.8890  66.0033 0002079  82.2860 277.8505 13.12445242215052
ONEWEB-0128             
1 47274U 20100S   25154.51342772  .00000451  00000+0  12178-2 0  9995
2 47274  87.8896  66.0235 0001893  86.0305 274.1040 13.12445665215077
ONEWEB-0129             
1 47275U 20100T   25154.49234773  .00000060  00000+0  13136-3 0  9996
2 47275  87.8891  65.9729 0003137  87.1492 272.9995 13.12445945215000
ONEWEB-0130             
1 47276U 20100U   25154.44369405  .00000333  00000+0  89127-3 0  9999
2 47276  87.8890  65.9844 0001970  81.9207 278.2145 13.12443384214962
ONEWEB-0131             
1 47277U 20100V   25154.28797537  .00000474  00000+0  12822-2 0  9996
2 47277  87.8891  66.0404 0001882  81.2136 278.9206 13.12441728214981
ONEWEB-0132             
1 47278U 20100W   25154.46963817 -.00000368  00000+0 -10580-2 0  9996
2 47278  87.8892  66.0052 0001755  75.3325 284.7998 13.12443879214909
ONEWEB-0133             
1 47279U 20100X   25154.79067833 -.00000233  00000+0 -68385-3 0  9994
2 47279  87.8886  65.9205 0001847  82.5387 277.5951 13.12444524215101
ONEWEB-0134             
1 47280U 20100Y   25154.45503775  .00000084  00000+0  19784-3 0  9990
2 47280  87.8882  65.9714 0002010  86.2928 273.8430 13.12441047215039
ONEWEB-0135             
1 47281U 20100Z   25154.80703467  .00000298  00000+0  79201-3 0  9997
2 47281  87.8890  65.9373 0001922  93.3546 266.7802 13.12443632215100
ONEWEB-0136             
1 47282U 20100AA  25154.29283764  .00000358  00000+0  95923-3 0  9990
2 47282  87.8889  66.0069 0002177  90.5365 269.6012 13.12443811214961
ONEWEB-0137             
1 47283U 20100AB  25154.78430877 -.00000340  00000+0 -98113-3 0  9991
2 47283  87.8886  65.9172 0002111  75.0644 285.0718 13.12442030214932
ONEWEB-0138             
1 47284U 20100AC  25154.45828719 -.00000078  00000+0 -25192-3 0  9997
2 47284  87.8885  65.9937 0002030  81.2880 278.8478 13.12443296214974
ONEWEB-0139             
1 47285U 20100AD  25154.49736702  .00000207  00000+0  53884-3 0  9993
2 47285  87.8892  65.9761 0001960  78.9193 281.2156 13.12444408215056
ONEWEB-0140             
1 47286U 20100AE  25154.45179717  .00000132  00000+0  33120-3 0  9995
2 47286  87.8886  65.9720 0001981  82.0772 278.0581 13.12440646215019
ONEWEB-0141             
1 47287U 20100AF  25154.49706884 -.00000051  00000+0 -17589-3 0  9994
2 47287  87.8887  65.9800 0002220  71.7842 288.3528 13.12443636215006
ONEWEB-0142             
1 47288U 20100AG  25154.48600310 -.00000176  00000+0 -52464-3 0  9990
2 47288  87.8905  65.9815 0002248  78.0847 282.0533 13.12443483214993
ONEWEB-0143             
1 47289U 20100AH  25154.49558523  .00000177  00000+0  45594-3 0  9995
2 47289  87.8888  65.9854 0001941  78.7585 281.3761 13.12446099214971
ONEWEB-0144             
1 47290U 20100AJ  25154.46801904 -.00000327  00000+0 -94335-3 0  9994
2 47290  87.8888  65.9721 0002250  81.7994 278.3389 13.12443667214899
ONEWEB-0145             
1 47291U 20100AK  25154.51506139  .00000433  00000+0  11680-2 0  9990
2 47291  87.8887  65.9887 0002050  81.2927 278.8433 13.12442089215096
ONEWEB-0146             
1 47292U 20100AL  25154.51181730  .00000446  00000+0  12052-2 0  9995
2 47292  87.8888  65.9758 0001606  75.7979 284.3328 13.12442179215002
ONEWEB-0147             
1 47293U 20100AM  25154.47775553 -.00000322  00000+0 -93139-3 0  9994
2 47293  87.8886  65.9631 0001990  87.0332 273.1024 13.12443792214893
ONEWEB-0115             
1 48042U 21025A   25154.42071326  .00000261  00000+0  67900-3 0  9993
2 48042  87.8974  35.4860 0001797  80.9257 279.2075 13.13469110203875
ONEWEB-0152             
1 48043U 21025B   25154.35809372  .00000279  00000+0  72888-3 0  9996
2 48043  87.8980  35.5109 0001731  82.0359 278.0966 13.13471479203826
ONEWEB-0153             
1 48044U 21025C   25154.41224809  .00000124  00000+0  30494-3 0  9996
2 48044  87.8981  35.4968 0001890  80.6580 279.4763 13.13469668203823
ONEWEB-0154             
1 48045U 21025D   25154.40886054  .00000107  00000+0  25702-3 0  9999
2 48045  87.8976  35.4978 0001822  83.4448 276.6889 13.13472083203786
ONEWEB-0116             
1 48046U 21025E   25154.37161243  .00000000  00000+0 -33996-4 0  9990
2 48046  87.8983  35.4842 0001704  81.3697 278.7626 13.13468728203926
ONEWEB-0150             
1 48047U 21025F   25154.42408706  .00000338  00000+0  88955-3 0  9992
2 48047  87.8976  35.4725 0001897  76.9249 283.2092 13.13472392203824
ONEWEB-0107             
1 48048U 21025G   25154.42578690  .00000286  00000+0  74954-3 0  9999
2 48048  87.8974  35.4700 0002198  83.5447 276.5932 13.13472860203801
ONEWEB-0101             
1 48049U 21025H   25154.61708021 -.00000245  00000+0 -70653-3 0  9993
2 48049  87.8982  35.4687 0001925  84.7855 275.3493 13.13471434203803
ONEWEB-0113             
1 48050U 21025J   25154.40302552 -.00000017  00000+0 -81400-4 0  9991
2 48050  87.8979  35.4711 0001749  77.3145 282.8180 13.13972828203868
ONEWEB-0112             
1 48051U 21025K   25154.43086779  .00000307  00000+0  80534-3 0  9991
2 48051  87.8975  35.4661 0001896  78.7418 281.3924 13.13469200203876
